[{"OBJECT_NAME":"STARLETTE","OBJECT_ID":"1975-010A","EPOCH":"2026-04-05T05:16:54.803136","MEAN_MOTION":13.82349379,"ECCENTRICITY":0.02056374,"INCLINATION":49.8267,"RA_OF_ASC_NODE":32.605,"ARG_OF_PERICENTER":181.9862,"MEAN_ANOMALY":178.0233,"EPHEMERIS_TYPE":0,"CLASSIFICATION_TYPE":"U","NORAD_CAT_ID":7646,"ELEMENT_SET_NO":999,"REV_AT_EPOCH":58444,"BSTAR":-9.838904e-6,"MEAN_MOTION_DOT":-1.55e-6,"MEAN_MOTION_DDOT":0},{"OBJECT_NAME":"LAGEOS 1","OBJECT_ID":"1976-039A","EPOCH":"2026-04-05T02:41:01.357728","MEAN_MOTION":6.38664839,"ECCENTRICITY":0.00446741,"INCLINATION":109.8109,"RA_OF_ASC_NODE":154.3289,"ARG_OF_PERICENTER":317.9263,"MEAN_ANOMALY":61.6842,"EPHEMERIS_TYPE":0,"CLASSIFICATION_TYPE":"U","NORAD_CAT_ID":8820,"ELEMENT_SET_NO":999,"REV_AT_EPOCH":90847,"BSTAR":0,"MEAN_MOTION_DOT":-1.0e-8,"MEAN_MOTION_DDOT":0},{"OBJECT_NAME":"AJISAI (EGS)","OBJECT_ID":"1986-061A","EPOCH":"2026-04-05T07:15:10.257120","MEAN_MOTION":12.44515678,"ECCENTRICITY":0.00113692,"INCLINATION":50.0121,"RA_OF_ASC_NODE":11.5146,"ARG_OF_PERICENTER":355.5038,"MEAN_ANOMALY":96.7484,"EPHEMERIS_TYPE":0,"CLASSIFICATION_TYPE":"U","NORAD_CAT_ID":16908,"ELEMENT_SET_NO":999,"REV_AT_EPOCH":47131,"BSTAR":8.281478e-5,"MEAN_MOTION_DOT":-8.6e-7,"MEAN_MOTION_DDOT":0},{"OBJECT_NAME":"COSMOS 1989 (ETALON 1)","OBJECT_ID":"1989-001C","EPOCH":"2026-04-04T05:25:46.951104","MEAN_MOTION":2.13156089,"ECCENTRICITY":0.00234015,"INCLINATION":64.9042,"RA_OF_ASC_NODE":74.7233,"ARG_OF_PERICENTER":217.6455,"MEAN_ANOMALY":232.7159,"EPHEMERIS_TYPE":0,"CLASSIFICATION_TYPE":"U","NORAD_CAT_ID":19751,"ELEMENT_SET_NO":999,"REV_AT_EPOCH":28979,"BSTAR":0,"MEAN_MOTION_DOT":-5.0e-8,"MEAN_MOTION_DDOT":0},{"OBJECT_NAME":"COSMOS 2024 (ETALON 2)","OBJECT_ID":"1989-039C","EPOCH":"2026-04-05T02:01:35.592672","MEAN_MOTION":2.13204691,"ECCENTRICITY":0.00204903,"INCLINATION":64.9786,"RA_OF_ASC_NODE":313.0551,"ARG_OF_PERICENTER":213.1143,"MEAN_ANOMALY":320.7218,"EPHEMERIS_TYPE":0,"CLASSIFICATION_TYPE":"U","NORAD_CAT_ID":20026,"ELEMENT_SET_NO":999,"REV_AT_EPOCH":28694,"BSTAR":0,"MEAN_MOTION_DOT":-4.1e-7,"MEAN_MOTION_DDOT":0},{"OBJECT_NAME":"LAGEOS 2","OBJECT_ID":"1992-070B","EPOCH":"2026-03-20T02:10:27.910848","MEAN_MOTION":6.47293426,"ECCENTRICITY":0.0137714,"INCLINATION":52.6746,"RA_OF_ASC_NODE":322.9737,"ARG_OF_PERICENTER":148.3601,"MEAN_ANOMALY":4.1736,"EPHEMERIS_TYPE":0,"CLASSIFICATION_TYPE":"U","NORAD_CAT_ID":22195,"ELEMENT_SET_NO":999,"REV_AT_EPOCH":78965,"BSTAR":0,"MEAN_MOTION_DOT":-9.0e-8,"MEAN_MOTION_DDOT":0},{"OBJECT_NAME":"STELLA","OBJECT_ID":"1993-061B","EPOCH":"2026-04-05T07:11:44.939616","MEAN_MOTION":14.27468466,"ECCENTRICITY":0.00074902,"INCLINATION":98.7787,"RA_OF_ASC_NODE":159.2684,"ARG_OF_PERICENTER":89.577,"MEAN_ANOMALY":359.2186,"EPHEMERIS_TYPE":0,"CLASSIFICATION_TYPE":"U","NORAD_CAT_ID":22824,"ELEMENT_SET_NO":999,"REV_AT_EPOCH":69437,"BSTAR":7.913507e-6,"MEAN_MOTION_DOT":-2.6e-7,"MEAN_MOTION_DDOT":0},{"OBJECT_NAME":"LARETS","OBJECT_ID":"2003-042F","EPOCH":"2026-04-05T04:23:23.760096","MEAN_MOTION":14.63855732,"ECCENTRICITY":0.00110357,"INCLINATION":98.4066,"RA_OF_ASC_NODE":255.8875,"ARG_OF_PERICENTER":263.4329,"MEAN_ANOMALY":96.5616,"EPHEMERIS_TYPE":0,"CLASSIFICATION_TYPE":"U","NORAD_CAT_ID":27944,"ELEMENT_SET_NO":999,"REV_AT_EPOCH":20268,"BSTAR":2.9668573e-5,"MEAN_MOTION_DOT":1.04e-6,"MEAN_MOTION_DDOT":0},{"OBJECT_NAME":"LARES","OBJECT_ID":"2012-006A","EPOCH":"2026-04-05T06:49:20.593632","MEAN_MOTION":12.5493215,"ECCENTRICITY":0.00065706,"INCLINATION":69.4913,"RA_OF_ASC_NODE":56.7678,"ARG_OF_PERICENTER":118.6708,"MEAN_ANOMALY":241.498,"EPHEMERIS_TYPE":0,"CLASSIFICATION_TYPE":"U","NORAD_CAT_ID":38077,"ELEMENT_SET_NO":999,"REV_AT_EPOCH":64792,"BSTAR":-6.6886443e-5,"MEAN_MOTION_DOT":-4.9e-7,"MEAN_MOTION_DDOT":0},{"OBJECT_NAME":"LARES-2","OBJECT_ID":"2022-080A","EPOCH":"2026-03-31T05:21:37.648224","MEAN_MOTION":6.38965054,"ECCENTRICITY":0.00059524,"INCLINATION":70.1721,"RA_OF_ASC_NODE":332.0673,"ARG_OF_PERICENTER":3.9036,"MEAN_ANOMALY":356.1767,"EPHEMERIS_TYPE":0,"CLASSIFICATION_TYPE":"U","NORAD_CAT_ID":53105,"ELEMENT_SET_NO":999,"REV_AT_EPOCH":8668,"BSTAR":0,"MEAN_MOTION_DOT":-1.9e-7,"MEAN_MOTION_DDOT":0}]
